ONEWEB-0276             
1 48994U 21060AD  21330.58335648  .00037139  00000+0  96742-1 0  9995
2 48994  87.9161 199.7788 0002210  75.5130 141.5403 13.16579828  3284
ONEWEB-0277             
1 48995U 21060AE  21330.58335648  .00038767  00000+0  10097+0 0  9991
2 48995  87.9158 199.7791 0002471  82.1428  69.3994 13.16578314  3302
ONEWEB-0278             
1 48996U 21060AF  21330.58335648  .00037406  00000+0  97428-1 0  9996
2 48996  87.9214 199.5910 0001930  77.2151 129.0008 13.16584761  3284
ONEWEB-0279             
1 48997U 21060AG  21330.58335648  .00038605  00000+0  10055+0 0  9998
2 48997  87.9167 199.6949 0001533  74.0021  88.5048 13.16578133  3307
ONEWEB-0280             
1 48998U 21060AH  21330.58335648  .00037757  00000+0  98352-1 0  9994
2 48998  87.9146 199.7295 0002772  84.7241  12.3210 13.16575222  3298
ONEWEB-0281             
1 48999U 21060AJ  21330.58335648  .00036425  00000+0  94897-1 0  9996
2 48999  87.9154 199.6852 0001533 101.2230 323.2020 13.16574192  3303
ONEWEB-0282             
1 49000U 21060AK  21330.58335648  .00034712  00000+0  90440-1 0  9997
2 49000  87.9159 199.7564 0002207  73.4297 209.1031 13.16582468  3292
ONEWEB-0283             
1 49001U 21060AL  21330.58335648  .00034137  00000+0  88948-1 0  9999
2 49001  87.9149 199.7628 0002096  82.9883 254.0822 13.16581402  3299
ONEWEB-0284             
1 49002U 21060AM  21330.58335648  .00034585  00000+0  90116-1 0  9997
2 49002  87.9183 199.7302 0002028  73.4305 296.3240 13.16577303  3306
2021-061A               
1 49003U 21061A   21330.55563534  .00000335  00000+0  24730-4 0  9991
2 49003  97.5221  35.2121 0013275 125.2207  15.6281 15.09583857 22092
2021-061B               
1 49004U 21061B   21330.54665572  .00001043  00000+0  67321-4 0  9996
2 49004  97.5213  35.3396 0013725 140.6433 330.8291 15.10356407 22095
2021-061C               
1 49005U 21061C   21330.51337336  .00001007  00000+0  65708-4 0  9995
2 49005  97.5225  35.2488 0013608 135.1778 348.3805 15.10029812 22093
2021-061D               
1 49006U 21061D   21330.56453492  .00000612  00000+0  41255-4 0  9995
2 49006  97.5208  35.3226 0013972 137.6056 358.5232 15.10207523 22090
2021-061E               
1 49007U 21061E   21330.56818910  .00000756  00000+0  50185-4 0  9997
2 49007  97.5216  35.3154 0013833 135.5129 330.4138 15.10126146 22099
FENGYUN 3E              
1 49008U 21062A   21330.48067451 -.00000029  00000+0  70083-5 0  9990
2 49008  98.7066 330.6881 0001152 189.9002 170.2157 14.19815417 20518
TIANLIAN 1-05           
1 49011U 21063A   21330.55761858  .00000088  00000+0  00000+0 0  9995
2 49011   2.6763 285.4237 0004619   0.3468 351.3611  1.00276219  1394
ORCA-7                  
1 49013U 21013C   21330.28871692  .00008573  00000+0  34776-3 0  9998
2 49013  51.6286 288.0214 0008173  81.3285 278.8619 15.25378440 22765
GUNSMOKE-J 2            
1 49014U 21013D   21330.60114309  .00002498  00000+0  11488-3 0  9995
2 49014  51.6288 287.0326 0012608  80.8606 279.3798 15.24163008 22776
ORCA-6                  
1 49015U 21013E   21330.29128159  .00008686  00000+0  35238-3 0  9993
2 49015  51.6268 288.0291 0009151  86.8291 273.3735 15.25352608 22730
DHABISAT (MYSAT-2)      
1 49016U 21013F   21330.26158817  .00001990  00000+0  96253-4 0  9991
2 49016  51.5968 289.2593 0007202  44.5693 315.5862 15.23468886 22843
IT-SPINS                
1 49017U 21013G   21330.59359488  .00001880  00000+0  91806-4 0  9992
2 49017  51.6047 287.7723 0007336  48.4042 311.7562 15.23420279 22838
NINGXIA-1 6             
1 49018U 21064A   21330.53350802  .00000006  00000+0  80305-4 0  9995
2 49018  45.0009 179.6566 0007546 195.7292 164.3319 14.08053606 19728
NINGXIA-1 7             
1 49019U 21064B   21330.51963252 -.00000065  00000+0  39173-4 0  9996
2 49019  45.0039 179.6043 0007089 206.4233 153.6246 14.08043093 19739
NINGXIA-1 8             
1 49020U 21064C   21330.57613187 -.00000099  00000+0  19011-4 0  9999
2 49020  44.9951 179.1052 0007486 210.6341 149.4074 14.08045211 19742
NINGXIA-1 9             
1 49021U 21064D   21330.56217354 -.00000099  00000+0  18910-4 0  9992
2 49021  45.0030 179.1067 0007894 217.0524 142.9777 14.08038707 19746
NINGXIA-1 10            
1 49022U 21064E   21330.54760843 -.00000016  00000+0  67611-4 0  9998
2 49022  45.0012 178.9904 0007706 228.1685 131.8500 14.08048611 19743
YAOGAN 30 AD            
1 49026U 21065A   21330.42169177  .00000369  00000+0  40245-4 0  9997
2 49026  34.9952 218.5237 0005759 166.5261 193.5597 14.90049213 19457
TIANQI-15               
1 49027U 21065B   21330.39677784  .00000327  00000+0  34771-4 0  9993
2 49027  35.0046 216.5371 0009100 326.9917  33.0221 14.91489620 19481
YAOGAN 30 AE            
1 49028U 21065C   21330.60037872  .00000372  00000+0  40538-4 0  9994
2 49028  34.9946 217.1455 0001046 288.5861  71.4736 14.90084134 19466
YAOGAN 30 AF            
1 49029U 21065D   21330.37640227  .00000341  00000+0  37431-4 0  9997
2 49029  34.9964 218.1750 0005638 274.1271  85.8787 14.90056934 19465
ISS (NAUKA)             
1 49044U 21066A   21329.55858394  .00002236  00000+0  49341-4 0  9997
2 49044  51.6473 264.7967 0004534 250.2115 279.1587 15.48637316313608
TIANHUI 1-04            
1 49049U 21067A   21330.55868843  .00001314  00000+0  58383-4 0  9997
2 49049  97.4616  42.1449 0000746 119.5285 351.6572 15.23300922 18312
MONOLITH                
1 49052U 21068A   21330.04257139  .00000564  00000+0  67859-4 0  9990
2 49052  37.0227 331.0962 0006301 137.4008 222.7249 14.88182969 17877
STAR ONE D2             
1 49055U 21069A   21330.01363659 -.00000248  00000+0  00000+0 0  9996
2 49055   0.0065 228.1598 0002425 350.2876 141.5354  1.00268674  1238
EUTELSAT QUANTUM        
1 49056U 21069B   21330.56520656  .00000142  00000+0  00000+0 0  9991
2 49056   0.0423 114.5822 0003238 162.5429  39.7746  1.00272030  1241
KL-BETA A               
1 49059U 21070A   21330.44774365  .00000092  00000+0  56451-4 0  9991
2 49059  89.0013  40.7967 0005668 259.4862 100.5677 13.97214141 15920
KL-BETA B               
1 49060U 21070B   21330.51357654  .00000116  00000+0  73215-4 0  9993
2 49060  89.0008  40.7852 0005135 268.3890  91.6707 13.97214686 15937
CHINASAT 2E (ZX 2E)     
1 49062U 21071A   21322.29563032 -.00000279  00000+0  00000+0 0  9999
2 49062   0.0902 254.9268 0001957  58.9834 308.0979  1.00268203  1299
CYGNUS NG-16            
1 49064U 21072A   21330.54536195  .00001411  00000+0  51664-4 0  9994
2 49064  51.6443 260.4952 0006078 337.0863  22.9848 15.35226758313753
BRO-4                   
1 49066U 21073A   21330.44904974  .00001291  00000+0  86385-4 0  9994
2 49066  97.5491  42.5048 0028139 258.9529 100.8534 15.08429988 15278
RADCUBE                 
1 49067U 21073B   21330.51184952  .00001780  00000+0  12042-3 0  9990
2 49067  97.5485  42.4189 0026531 268.1053  91.7136 15.07554992 15253
SUNSTORM                
1 49068U 21073C   21330.44735010  .00001532  00000+0  10435-3 0  9999
2 49068  97.5492  42.3576 0026452 268.6498  91.1700 15.07516772 15245
LEDSAT                  
1 49069U 21073D   21330.18848522  .00000636  00000+0  45975-4 0  9996
2 49069  97.5487  42.0852 0026462 269.9518  89.8678 15.07329004 15206
PLEIADES NEO 4          
1 49070U 21073E   21330.48950062 -.00000343  00000+0 -36986-4 0  9993
2 49070  97.8944  43.1273 0001352  82.0548 278.0823 14.81669863 15010
TIANHUI 2-02A           
1 49071U 21074A   21330.46956948  .01314054  00000+0  61769-1 0  9992
2 49071  97.4457 332.8354 0004188 199.1745 290.3650 15.16789306 15090
TIANHUI 2-02B           
1 49072U 21074B   21330.53312315  .00000309  00000+0  19072-4 0  9992
2 49072  97.4534 332.8963 0001855  99.7013  16.5960 15.16770855 15095
ONEWEB-0285             
1 49075U 21075A   21330.58335648 -.00041293  00000+0 -47657-2 0  9992
2 49075  87.5318 334.9549 0015642 319.4802 215.5437 14.85894440  3558
ONEWEB-0286             
1 49076U 21075B   21330.58335648 -.00046094  00000+0 -54917-2 0  9994
2 49076  87.1990 332.1822 0018578 322.6740 111.2091 14.84574243  3545
ONEWEB-0287             
1 49077U 21075C   21330.58335648  .00000014  00000+0  00000+0 0  9996
2 49077  87.8503 336.7803 0020241 341.8500 352.9447 13.60649066  3413
ONEWEB-0288             
1 49078U 21075D   21330.58335648 -.00040011  00000+0 -46190-2 0  9993
2 49078  87.5355 334.9496 0016724 327.4956  24.0551 14.85863003  3555
ONEWEB-0289             
1 49079U 21075E   21330.58335648 -.01054570  00000+0 -28985+0 0  9999
2 49079  87.7675 334.9598 0019701 324.3862 224.8621 14.50355667  3536
ONEWEB-0290             
1 49080U 21075F   21330.58335648  .00000015  00000+0  00000+0 0  9991
2 49080  87.8361 336.8107 0021183 344.3643 223.7655 13.63380966  3419
ONEWEB-0291             
1 49081U 21075G   21330.58335648  .00000014  00000+0  00000+0 0  9991
2 49081  87.8441 336.7860 0017564 333.4551  28.5227 13.59487016  3414
ONEWEB-0293             
1 49082U 21075H   21330.58335648  .00000015  00000+0  00000+0 0  9993
2 49082  87.8568 336.7881 0019463 331.7164 181.3019 13.66703966  3408
ONEWEB-0294             
1 49083U 21075J   21330.58335648 -.00046443  00000+0 -55250-2 0  9991
2 49083  87.1996 332.1776 0020040 315.1499 203.9703 14.84616982  3559
ONEWEB-0295             
1 49084U 21075K   21330.58335648  .00000015  00000+0  00000+0 0  9995
2 49084  87.8283 336.7765 0019838 341.3869 181.3369 13.62404750  3425
ONEWEB-0296             
1 49085U 21075L   21330.58335648 -.00043925  00000+0 -52346-2 0  9998
2 49085  87.1986 332.1736 0020266 321.4969  70.5915 14.84528305  3552
ONEWEB-0297             
1 49086U 21075M   21330.58335648 -.00041323  00000+0 -47686-2 0  9990
2 49086  87.5311 334.9580 0015634 315.6291 209.8658 14.85899984  3558
ONEWEB-0298             
1 49087U 21075N   21330.58335648  .00000015  00000+0  00000+0 0  9998
2 49087  87.8289 336.7424 0019090 331.7946  93.3455 13.61667285  3460
